[{"OBJECT_NAME":"ONEWEB-0709","OBJECT_ID":"2023-004AJ","EPOCH":"2026-02-01T22:19:26.813280","MEAN_MOTION":13.11418534,"ECCENTRICITY":0.00018212,"INCLINATION":87.8815,"RA_OF_ASC_NODE":48,"ARG_OF_PERICENTER":119.3089,"MEAN_ANOMALY":240.8221,"EPHEMERIS_TYPE":0,"CLASSIFICATION_TYPE":"U","NORAD_CAT_ID":55172,"ELEMENT_SET_NO":999,"REV_AT_EPOCH":14814,"BSTAR":0.00020387011,"MEAN_MOTION_DOT":8.5e-7,"MEAN_MOTION_DDOT":0},{"OBJECT_NAME":"ONEWEB-0710","OBJECT_ID":"2023-004AK","EPOCH":"2026-02-01T23:04:29.410464","MEAN_MOTION":13.17647716,"ECCENTRICITY":0.00020511,"INCLINATION":87.9091,"RA_OF_ASC_NODE":32.7359,"ARG_OF_PERICENTER":87.909,"MEAN_ANOMALY":272.2276,"EPHEMERIS_TYPE":0,"CLASSIFICATION_TYPE":"U","NORAD_CAT_ID":55173,"ELEMENT_SET_NO":999,"REV_AT_EPOCH":14977,"BSTAR":0.0001586147,"MEAN_MOTION_DOT":7.4e-7,"MEAN_MOTION_DDOT":0},{"OBJECT_NAME":"ONEWEB-0711","OBJECT_ID":"2023-004AL","EPOCH":"2026-02-01T23:27:47.895552","MEAN_MOTION":13.11415812,"ECCENTRICITY":0.0002588,"INCLINATION":87.882,"RA_OF_ASC_NODE":47.9686,"ARG_OF_PERICENTER":86.7581,"MEAN_ANOMALY":273.3843,"EPHEMERIS_TYPE":0,"CLASSIFICATION_TYPE":"U","NORAD_CAT_ID":55174,"ELEMENT_SET_NO":999,"REV_AT_EPOCH":14811,"BSTAR":-0.00099372462,"MEAN_MOTION_DOT":-3.39e-6,"MEAN_MOTION_DDOT":0},{"OBJECT_NAME":"ONEWEB-0713","OBJECT_ID":"2023-004AM","EPOCH":"2026-02-01T18:25:03.652032","MEAN_MOTION":13.1141869,"ECCENTRICITY":0.00022575,"INCLINATION":87.882,"RA_OF_ASC_NODE":48.0116,"ARG_OF_PERICENTER":89.1412,"MEAN_ANOMALY":270.9975,"EPHEMERIS_TYPE":0,"CLASSIFICATION_TYPE":"U","NORAD_CAT_ID":55175,"ELEMENT_SET_NO":999,"REV_AT_EPOCH":14807,"BSTAR":-0.001182043,"MEAN_MOTION_DOT":-4.06e-6,"MEAN_MOTION_DDOT":0},{"OBJECT_NAME":"ONEWEB-0715","OBJECT_ID":"2023-004AN","EPOCH":"2026-02-01T12:48:07.418880","MEAN_MOTION":13.11417453,"ECCENTRICITY":0.00021573,"INCLINATION":87.8818,"RA_OF_ASC_NODE":48.0589,"ARG_OF_PERICENTER":111.0966,"MEAN_ANOMALY":249.0393,"EPHEMERIS_TYPE":0,"CLASSIFICATION_TYPE":"U","NORAD_CAT_ID":55176,"ELEMENT_SET_NO":999,"REV_AT_EPOCH":14808,"BSTAR":-0.0012386929,"MEAN_MOTION_DOT":-4.26e-6,"MEAN_MOTION_DDOT":0},{"OBJECT_NAME":"ONEWEB-0716","OBJECT_ID":"2023-004AP","EPOCH":"2026-02-01T22:54:47.090880","MEAN_MOTION":13.17650059,"ECCENTRICITY":0.00016505,"INCLINATION":87.9092,"RA_OF_ASC_NODE":32.7374,"ARG_OF_PERICENTER":85.3689,"MEAN_ANOMALY":274.7631,"EPHEMERIS_TYPE":0,"CLASSIFICATION_TYPE":"U","NORAD_CAT_ID":55177,"ELEMENT_SET_NO":999,"REV_AT_EPOCH":14977,"BSTAR":0.00014169898,"MEAN_MOTION_DOT":6.8e-7,"MEAN_MOTION_DDOT":0},{"OBJECT_NAME":"ONEWEB-0717","OBJECT_ID":"2023-004AQ","EPOCH":"2026-02-01T22:30:29.148768","MEAN_MOTION":13.17649767,"ECCENTRICITY":0.00025672,"INCLINATION":87.9103,"RA_OF_ASC_NODE":32.7167,"ARG_OF_PERICENTER":88.2764,"MEAN_ANOMALY":271.8661,"EPHEMERIS_TYPE":0,"CLASSIFICATION_TYPE":"U","NORAD_CAT_ID":55178,"ELEMENT_SET_NO":999,"REV_AT_EPOCH":14982,"BSTAR":-9.5054167e-5,"MEAN_MOTION_DOT":-2.4e-7,"MEAN_MOTION_DDOT":0},{"OBJECT_NAME":"ONEWEB-0719","OBJECT_ID":"2023-004AR","EPOCH":"2026-02-01T22:45:05.353632","MEAN_MOTION":13.17648865,"ECCENTRICITY":0.00017884,"INCLINATION":87.9102,"RA_OF_ASC_NODE":32.6965,"ARG_OF_PERICENTER":82.7834,"MEAN_ANOMALY":277.3501,"EPHEMERIS_TYPE":0,"CLASSIFICATION_TYPE":"U","NORAD_CAT_ID":55179,"ELEMENT_SET_NO":999,"REV_AT_EPOCH":14977,"BSTAR":7.2187479e-5,"MEAN_MOTION_DOT":4.1e-7,"MEAN_MOTION_DDOT":0},{"OBJECT_NAME":"ONEWEB-0530","OBJECT_ID":"2023-029A","EPOCH":"2026-02-01T18:55:53.796576","MEAN_MOTION":13.20773632,"ECCENTRICITY":0.00021377,"INCLINATION":87.9217,"RA_OF_ASC_NODE":301.5011,"ARG_OF_PERICENTER":71.5144,"MEAN_ANOMALY":288.6221,"EPHEMERIS_TYPE":0,"CLASSIFICATION_TYPE":"U","NORAD_CAT_ID":55796,"ELEMENT_SET_NO":999,"REV_AT_EPOCH":14327,"BSTAR":5.0464516e-5,"MEAN_MOTION_DOT":3.3e-7,"MEAN_MOTION_DDOT":0},{"OBJECT_NAME":"ONEWEB-0534","OBJECT_ID":"2023-029B","EPOCH":"2026-02-01T18:37:43.001760","MEAN_MOTION":13.20774462,"ECCENTRICITY":0.00015782,"INCLINATION":87.9213,"RA_OF_ASC_NODE":301.5029,"ARG_OF_PERICENTER":74.9527,"MEAN_ANOMALY":285.1781,"EPHEMERIS_TYPE":0,"CLASSIFICATION_TYPE":"U","NORAD_CAT_ID":55797,"ELEMENT_SET_NO":999,"REV_AT_EPOCH":14327,"BSTAR":0.00012862149,"MEAN_MOTION_DOT":6.5e-7,"MEAN_MOTION_DDOT":0},{"OBJECT_NAME":"ONEWEB-0556","OBJECT_ID":"2023-029C","EPOCH":"2026-02-01T18:46:48.723168","MEAN_MOTION":13.20772574,"ECCENTRICITY":0.00017417,"INCLINATION":87.9218,"RA_OF_ASC_NODE":301.5034,"ARG_OF_PERICENTER":45.3829,"MEAN_ANOMALY":314.7446,"EPHEMERIS_TYPE":0,"CLASSIFICATION_TYPE":"U","NORAD_CAT_ID":55798,"ELEMENT_SET_NO":999,"REV_AT_EPOCH":14327,"BSTAR":1.9116655e-5,"MEAN_MOTION_DOT":2.1e-7,"MEAN_MOTION_DDOT":0},{"OBJECT_NAME":"ONEWEB-0562","OBJECT_ID":"2023-029D","EPOCH":"2026-02-01T18:28:37.486848","MEAN_MOTION":13.20774046,"ECCENTRICITY":0.00023544,"INCLINATION":87.9216,"RA_OF_ASC_NODE":301.4861,"ARG_OF_PERICENTER":61.0269,"MEAN_ANOMALY":299.1101,"EPHEMERIS_TYPE":0,"CLASSIFICATION_TYPE":"U","NORAD_CAT_ID":55799,"ELEMENT_SET_NO":999,"REV_AT_EPOCH":14327,"BSTAR":0.00017817367,"MEAN_MOTION_DOT":8.5e-7,"MEAN_MOTION_DDOT":0},{"OBJECT_NAME":"ONEWEB-0563","OBJECT_ID":"2023-029E","EPOCH":"2026-02-01T18:19:31.652256","MEAN_MOTION":13.20774774,"ECCENTRICITY":0.00014616,"INCLINATION":87.922,"RA_OF_ASC_NODE":301.5172,"ARG_OF_PERICENTER":73.3582,"MEAN_ANOMALY":286.7711,"EPHEMERIS_TYPE":0,"CLASSIFICATION_TYPE":"U","NORAD_CAT_ID":55800,"ELEMENT_SET_NO":999,"REV_AT_EPOCH":14326,"BSTAR":0.00018768846,"MEAN_MOTION_DOT":8.9e-7,"MEAN_MOTION_DDOT":0},{"OBJECT_NAME":"ONEWEB-0564","OBJECT_ID":"2023-029F","EPOCH":"2026-02-01T18:10:26.076864","MEAN_MOTION":13.20774892,"ECCENTRICITY":0.00019769,"INCLINATION":87.9214,"RA_OF_ASC_NODE":301.4918,"ARG_OF_PERICENTER":70.5339,"MEAN_ANOMALY":289.6008,"EPHEMERIS_TYPE":0,"CLASSIFICATION_TYPE":"U","NORAD_CAT_ID":55801,"ELEMENT_SET_NO":999,"REV_AT_EPOCH":14327,"BSTAR":0.00029515868,"MEAN_MOTION_DOT":1.33e-6,"MEAN_MOTION_DDOT":0},{"OBJECT_NAME":"ONEWEB-0638","OBJECT_ID":"2023-029G","EPOCH":"2026-02-01T19:51:18.396000","MEAN_MOTION":13.14502972,"ECCENTRICITY":0.00018588,"INCLINATION":87.9019,"RA_OF_ASC_NODE":316.7485,"ARG_OF_PERICENTER":61.128,"MEAN_ANOMALY":299.0036,"EPHEMERIS_TYPE":0,"CLASSIFICATION_TYPE":"U","NORAD_CAT_ID":55802,"ELEMENT_SET_NO":999,"REV_AT_EPOCH":14161,"BSTAR":-0.00018278417,"MEAN_MOTION_DOT":-5.5e-7,"MEAN_MOTION_DDOT":0},{"OBJECT_NAME":"ONEWEB-0639","OBJECT_ID":"2023-029H","EPOCH":"2026-02-01T20:24:47.997792","MEAN_MOTION":13.19723022,"ECCENTRICITY":7.681e-5,"INCLINATION":87.9244,"RA_OF_ASC_NODE":331.9168,"ARG_OF_PERICENTER":97.1064,"MEAN_ANOMALY":263.0156,"EPHEMERIS_TYPE":0,"CLASSIFICATION_TYPE":"U","NORAD_CAT_ID":55803,"ELEMENT_SET_NO":999,"REV_AT_EPOCH":14105,"BSTAR":0.00010709218,"MEAN_MOTION_DOT":5.6e-7,"MEAN_MOTION_DDOT":0},{"OBJECT_NAME":"ONEWEB-0640","OBJECT_ID":"2023-029J","EPOCH":"2026-02-01T20:05:00.860064","MEAN_MOTION":13.145028,"ECCENTRICITY":0.00015266,"INCLINATION":87.9023,"RA_OF_ASC_NODE":316.7361,"ARG_OF_PERICENTER":51.2829,"MEAN_ANOMALY":308.8437,"EPHEMERIS_TYPE":0,"CLASSIFICATION_TYPE":"U","NORAD_CAT_ID":55804,"ELEMENT_SET_NO":999,"REV_AT_EPOCH":14163,"BSTAR":0.00051811481,"MEAN_MOTION_DOT":2.05e-6,"MEAN_MOTION_DDOT":0}]
