ONEWEB-0709             
1 55172U 23004AJ  26032.93017145  .00000085  00000+0  20387-3 0  9997
2 55172  87.8815  48.0000 0001821 119.3089 240.8221 13.11418534148142
ONEWEB-0710             
1 55173U 23004AK  26032.96145151  .00000074  00000+0  15861-3 0  9999
2 55173  87.9091  32.7359 0002051  87.9090 272.2276 13.17647716149776
ONEWEB-0711             
1 55174U 23004AL  26032.97763768 -.00000339  00000+0 -99372-3 0  9996
2 55174  87.8820  47.9686 0002588  86.7581 273.3843 13.11415812148117
ONEWEB-0713             
1 55175U 23004AM  26032.76740338 -.00000406  00000+0 -11820-2 0  9998
2 55175  87.8820  48.0116 0002257  89.1412 270.9975 13.11418690148072
ONEWEB-0715             
1 55176U 23004AN  26032.53341920 -.00000426  00000+0 -12387-2 0  9999
2 55176  87.8818  48.0589 0002157 111.0966 249.0393 13.11417453148080
ONEWEB-0716             
1 55177U 23004AP  26032.95471170  .00000068  00000+0  14170-3 0  9990
2 55177  87.9092  32.7374 0001650  85.3689 274.7631 13.17650059149774
ONEWEB-0717             
1 55178U 23004AQ  26032.93783737 -.00000024  00000+0 -95054-4 0  9999
2 55178  87.9103  32.7167 0002567  88.2764 271.8661 13.17649767149823
ONEWEB-0719             
1 55179U 23004AR  26032.94797863  .00000041  00000+0  72187-4 0  9995
2 55179  87.9102  32.6965 0001788  82.7834 277.3501 13.17648865149775
ONEWEB-0530             
1 55796U 23029A   26032.78881709  .00000033  00000+0  50465-4 0  9998
2 55796  87.9217 301.5011 0002137  71.5144 288.6221 13.20773632143274
ONEWEB-0534             
1 55797U 23029B   26032.77619215  .00000065  00000+0  12862-3 0  9992
2 55797  87.9213 301.5029 0001578  74.9527 285.1781 13.20774462143275
ONEWEB-0556             
1 55798U 23029C   26032.78250837  .00000021  00000+0  19117-4 0  9998
2 55798  87.9218 301.5034 0001741  45.3829 314.7446 13.20772574143275
ONEWEB-0562             
1 55799U 23029D   26032.76987832  .00000085  00000+0  17817-3 0  9993
2 55799  87.9216 301.4861 0002354  61.0269 299.1101 13.20774046143275
ONEWEB-0563             
1 55800U 23029E   26032.76356079  .00000089  00000+0  18769-3 0  9990
2 55800  87.9220 301.5172 0001461  73.3582 286.7711 13.20774774143267
ONEWEB-0564             
1 55801U 23029F   26032.75724626  .00000133  00000+0  29516-3 0  9999
2 55801  87.9214 301.4918 0001976  70.5339 289.6008 13.20774892143271
ONEWEB-0638             
1 55802U 23029G   26032.82729625 -.00000055  00000+0 -18278-3 0  9990
2 55802  87.9019 316.7485 0001858  61.1280 299.0036 13.14502972141616
ONEWEB-0639             
1 55803U 23029H   26032.85055553  .00000056  00000+0  10709-3 0  9996
2 55803  87.9244 331.9168 0000768  97.1064 263.0156 13.19723022141050
ONEWEB-0640             
1 55804U 23029J   26032.83681551  .00000205  00000+0  51811-3 0  9993
2 55804  87.9023 316.7361 0001526  51.2829 308.8437 13.14502800141633
